{"type": "FeatureCollection", "features": [ {"type": "Feature", "properties": {"norad_id": 62339, "name": "GPS BIII-7  (PRN 01)", "group": "gps-ops", "lat": -10.377164348062747, "lon": 169.35458993664238, "alt_km": 20210.925560124953, "timestamp": "2025-12-07T03:52:32.755423+00:00", "meta": {"OBJECT_NAME": "GPS BIII-7  (PRN 01)", "OBJECT_ID": "2024-242A", "EPOCH": "2025-12-06T03:34:51.967776", "MEAN_MOTION": 2.00567316, "ECCENTRICITY": 0.00118388, "INCLINATION": 54.9253, "RA_OF_ASC_NODE": 342.0071, "ARG_OF_PERICENTER": 343.7333, "MEAN_ANOMALY": 198.0861, "EPHEMERIS_TYPE": 0, "CLASSIFICATION_TYPE": "U", "NORAD_CAT_ID": 62339, "ELEMENT_SET_NO": 999, "REV_AT_EPOCH": 738, "BSTAR": 0, "MEAN_MOTION_DOT": -8.2e-07, "MEAN_MOTION_DDOT": 0}, "tle": {"line1": "1 62339U 24242A   25340.14921259 -.00000082  00000+0  00000+0 0  9993", "line2": "2 62339  54.9253 342.0071 0011838 343.7333 198.0861  2.00567316  7388"}}, "geometry": {"type": "Point", "coordinates": [169.35458993664238, -10.377164348062747]}}, {"type": "Feature", "properties": {"norad_id": 64202, "name": "GPS BIII-8  (PRN 21)", "group": "gps-ops", "lat": 18.23408626354726, "lon": 52.16808602775332, "alt_km": 20177.202214006476, "timestamp": "2025-12-07T03:52:32.755449+00:00", "meta": {"OBJECT_NAME": "GPS BIII-8  (PRN 21)", "OBJECT_ID": "2025-116A", "EPOCH": "2025-12-03T06:10:25.375296", "MEAN_MOTION": 2.00558491, "ECCENTRICITY": 0.0004994, "INCLINATION": 55.0986, "RA_OF_ASC_NODE": 39.0246, "ARG_OF_PERICENTER": 306.9577, "MEAN_ANOMALY": 136.4728, "EPHEMERIS_TYPE": 0, "CLASSIFICATION_TYPE": "U", "NORAD_CAT_ID": 64202, "ELEMENT_SET_NO": 999, "REV_AT_EPOCH": 394, "BSTAR": 0, "MEAN_MOTION_DOT": -6.8e-07, "MEAN_MOTION_DDOT": 0}, "tle": {"line1": "1 64202U 25116A   25337.25723814 -.00000068  00000+0  00000+0 0  9994", "line2": "2 64202  55.0986  39.0246 0004994 306.9577 136.4728  2.00558491  3947"}}, "geometry": {"type": "Point", "coordinates": [52.16808602775332, 18.23408626354726]}}]}